IRIDIUM 57              
1 25273U 98019B   24253.57193970  .00001414  00000+0  48633-3 0  9999
2 25273  86.3898 262.7589 0002201  90.4969 269.6479 14.35383135384525
IRIDIUM 63              
1 25286U 98021B   24253.56283256  .00002304  00000+0  78718-3 0  9998
2 25286  86.4037 199.6955 0002588  87.9945 272.1548 14.35974778383561
IRIDIUM 69              
1 25319U 98026A   24253.59103586  .00002621  00000+0  82270-3 0  9990
2 25319  86.4005 213.8020 0001592 152.5816 207.5467 14.40225363382662
IRIDIUM 71              
1 25320U 98026B   24253.43407618  .00002634  00000+0  82166-3 0  9996
2 25320  86.4012 208.6160 0001044  27.5300 332.5955 14.40537408383163
IRIDIUM 73              
1 25344U 98032C   24253.52251467  .00002910  00000+0  73357-3 0  9997
2 25344  86.4485 165.9239 0002050  96.9577 263.1862 14.50851137390151
IRIDIUM 82              
1 25467U 98051A   24253.52202746  .00030842  00000+0  14258-2 0  9999
2 25467  86.3708 245.6318 0115374 269.0449  89.7571 15.14187181381233
